{
  "norad_id": 62619,
  "name": "IRIS-F3",
  "history": [
    {
      "epoch": "2026-03-28T21:16:51.256704Z",
      "apogee_km": 492.4301798729657,
      "perigee_km": 485.04211105576087,
      "latitude_deg": 6.63426473655765e-05,
      "longitude_deg": 23.896710204297875,
      "height_km": 494.0150130370031,
      "semi_major_axis_km": 6866.873145464363,
      "eccentricity": 0.00053795,
      "inclination_deg": 97.4065,
      "raan_deg": 169.411,
      "arg_perigee_deg": 233.9247,
      "mean_anomaly_deg": 126.1494,
      "mean_motion_rev_day": 15.25682712
    },
    {
      "epoch": "2026-03-29T05:09:04.389696Z",
      "apogee_km": 492.52867322508337,
      "perigee_km": 484.8611687021357,
      "latitude_deg": 4.724118685007644e-06,
      "longitude_deg": -94.15762490538576,
      "height_km": 494.38174416290997,
      "semi_major_axis_km": 6866.831920963609,
      "eccentricity": 0.0005583,
      "inclination_deg": 97.4066,
      "raan_deg": 169.7346,
      "arg_perigee_deg": 227.6372,
      "mean_anomaly_deg": 132.4394,
      "mean_motion_rev_day": 15.25696451
    },
    {
      "epoch": "2026-03-30T04:45:42.338880Z",
      "apogee_km": 492.5854667649819,
      "perigee_km": 484.5691271604219,
      "latitude_deg": 4.6423512027543316e-05,
      "longitude_deg": -88.31020175005486,
      "height_km": 494.31524843211395,
      "semi_major_axis_km": 6866.714296962702,
      "eccentricity": 0.00058371,
      "inclination_deg": 97.407,
      "raan_deg": 170.7098,
      "arg_perigee_deg": 228.9146,
      "mean_anomaly_deg": 131.1589,
      "mean_motion_rev_day": 15.25735653
    },
    {
      "epoch": "2026-03-30T18:55:39.892224Z",
      "apogee_km": 492.60024235384117,
      "perigee_km": 484.377595148655,
      "latitude_deg": 0.00010214230314942548,
      "longitude_deg": 59.20570971404728,
      "height_km": 494.1986253898997,
      "semi_major_axis_km": 6866.625918751248,
      "eccentricity": 0.00059874,
      "inclination_deg": 97.4066,
      "raan_deg": 171.2973,
      "arg_perigee_deg": 230.6715,
      "mean_anomaly_deg": 129.3994,
      "mean_motion_rev_day": 15.25765109
    },
    {
      "epoch": "2026-03-31T04:22:17.964768Z",
      "apogee_km": 492.7562458432103,
      "perigee_km": 484.1795816417498,
      "latitude_deg": -1.9302197274472524e-05,
      "longitude_deg": -82.45185724852497,
      "height_km": 494.39623358004235,
      "semi_major_axis_km": 6866.60491374248,
      "eccentricity": 0.00062452,
      "inclination_deg": 97.407,
      "raan_deg": 171.6862,
      "arg_perigee_deg": 228.81,
      "mean_anomaly_deg": 131.26,
      "mean_motion_rev_day": 15.2577211
    },
    {
      "epoch": "2026-04-02T05:09:48.549600Z",
      "apogee_km": 491.93028371304354,
      "perigee_km": 484.48428264547783,
      "latitude_deg": 7.304258803916677e-05,
      "longitude_deg": -94.32051267879534,
      "height_km": 494.5129124916265,
      "semi_major_axis_km": 6866.34428317926,
      "eccentricity": 0.00054221,
      "inclination_deg": 97.4095,
      "raan_deg": 173.6988,
      "arg_perigee_deg": 210.6411,
      "mean_anomaly_deg": 149.4512,
      "mean_motion_rev_day": 15.25858983
    },
    {
      "epoch": "2026-04-03T18:56:07.428768Z",
      "apogee_km": 492.6867575736833,
      "perigee_km": 483.05649387524136,
      "latitude_deg": 4.229771700351827e-06,
      "longitude_deg": 59.11069625070129,
      "height_km": 495.16109160126905,
      "semi_major_axis_km": 6866.008625724462,
      "eccentricity": 0.0007013,
      "inclination_deg": 97.4048,
      "raan_deg": 175.2599,
      "arg_perigee_deg": 209.6233,
      "mean_anomaly_deg": 150.4609,
      "mean_motion_rev_day": 15.25970876
    },
    {
      "epoch": "2026-04-04T04:22:41.151936Z",
      "apogee_km": 491.768725031905,
      "perigee_km": 483.90800715477235,
      "latitude_deg": -1.5314304014919622e-05,
      "longitude_deg": -82.5287125573792,
      "height_km": 494.0850080480062,
      "semi_major_axis_km": 6865.975366093338,
      "eccentricity": 0.00057244,
      "inclination_deg": 97.4067,
      "raan_deg": 175.6488,
      "arg_perigee_deg": 216.8953,
      "mean_anomaly_deg": 143.1892,
      "mean_motion_rev_day": 15.25981964
    }
  ]
}